GPS BIIR-2  (PRN 13)    
1 24876U 97035A   20066.23414928  .00000003  00000-0  00000+0 0  9990
2 24876  55.4559 188.1840 0039524  64.1268 296.2525  2.00564860165747
GPS BIIR-3  (PRN 11)    
1 25933U 99055A   20068.55535792 -.00000059  00000-0  00000-0 0  9992
2 25933  52.2659  34.3561 0156644 112.8794  66.8377  2.00558147149613
GPS BIIR-4  (PRN 20)    
1 26360U 00025A   20067.25367476  .00000025  00000-0  00000-0 0  9996
2 26360  53.4693 113.4264 0049309 152.0448 202.0719  2.00568110145272
GPS BIIR-5  (PRN 28)    
1 26407U 00040A   20065.56475441  .00000004  00000-0  00000-0 0  9996
2 26407  56.0712 306.2673 0188411 278.9697 259.8457  2.00564571143929
GPS BIIR-6  (PRN 14)    
1 26605U 00071A   20068.92428907  .00000003  00000-0  00000-0 0  9997
2 26605  55.0316 185.4201 0112771 249.9612 109.0279  2.00569412141591
GPS BIIR-8  (PRN 16)    
1 27663U 03005A   20068.93289141 -.00000001  00000-0  00000-0 0  9997
2 27663  56.1256 305.9176 0113440  34.0238 183.1821  2.00557677125354
GPS BIIR-9  (PRN 21)    
1 27704U 03010A   20067.84617875 -.00000015  00000-0  00000+0 0  9991
2 27704  54.5560  57.1530 0250433 282.2417 196.7105  2.00578054124121
GPS BIIR-10 (PRN 22)    
1 28129U 03058A   20067.42425741  .00000025  00000-0  00000-0 0  9999
2 28129  53.2801 116.1543 0073666 289.9888  69.3008  2.00576850118801
GPS BIIR-11 (PRN 19)    
1 28190U 04009A   20068.66998959 -.00000074  00000-0  00000+0 0  9991
2 28190  56.2817   6.7125 0090029  89.8845  90.5688  2.00563585117014
GPS BIIR-12 (PRN 23)    
1 28361U 04023A   20069.48395508  .00000005  00000-0  00000-0 0  9993
2 28361  54.0578 179.4918 0137639 235.1891  83.8237  2.00565557115090
GPS BIIR-13 (PRN 02)    
1 28474U 04045A   20069.03472975 -.00000022  00000-0  00000+0 0  9996
2 28474  54.9055  56.9519 0200239 265.4403  95.8845  2.00566244112473
GPS BIIRM-1 (PRN 17)    
1 28874U 05038A   20069.14368328 -.00000074  00000-0  00000-0 0  9999
2 28874  56.3903   4.0724 0135785 265.6366 277.6814  2.00565102105885
GPS BIIRM-2 (PRN 31)    
1 29486U 06042A   20069.00158010  .00000035  00000-0  00000-0 0  9991
2 29486  54.8972 242.3953 0096214   5.8684 351.5798  2.00549479 98585
GPS BIIRM-3 (PRN 12)    
1 29601U 06052A   20068.44754111  .00000004  00000-0  00000+0 0  9997
2 29601  56.1113 304.8556 0078310  63.2787 297.5865  2.00556629 97496
GPS BIIRM-4 (PRN 15)    
1 32260U 07047A   20064.26607425 -.00000001  00000-0  00000+0 0  9996
2 32260  53.1812 175.1483 0120049  49.0040 312.0197  2.00566331 90780
GPS BIIRM-5 (PRN 29)    
1 32384U 07062A   20065.84077312 -.00000071  00000-0  00000+0 0  9998
2 32384  56.4831   4.8672 0009397 111.9619  74.2731  2.00570460 89557
GPS BIIRM-6 (PRN 07)    
1 32711U 08012A   20067.17752276  .00000053  00000-0  00000-0 0  9995
2 32711  54.6425 241.5957 0135629 222.3933 136.5394  2.00561504 87789
GPS BIIRM-8 (PRN 05)    
1 35752U 09043A   20069.13305809  .00000032  00000-0  00000-0 0  9999
2 35752  54.5417 119.1051 0056066  43.5286 320.0561  2.00570231 77415
GPS BIIF-1  (PRN 25)    
1 36585U 10022A   20067.32826179  .00000014  00000-0  00000-0 0  9990
2 36585  55.3869 301.0086 0089941  51.0715 193.5282  2.00574245 71594
GPS BIIF-2  (PRN 01)    
1 37753U 11036A   20068.36550890 -.00000007  00000-0  00000+0 0  9995
2 37753  56.1082  61.2556 0093350  42.1472 318.7748  2.00568542 63306
GPS BIIF-3  (PRN 24)    
1 38833U 12053A   20068.85504896  .00000031  00000-0  00000-0 0  9991
2 38833  53.6822 237.4716 0094430  36.9231 323.6928  2.00564563 54370
GPS BIIF-4  (PRN 27)    
1 39166U 13023A   20068.71151138 -.00000073  00000-0  00000-0 0  9998
2 39166  56.0577   0.7723 0078922  28.1708 332.2579  2.00565417 49914
GPS BIIF-5  (PRN 30)    
1 39533U 14008A   20067.71858941  .00000045  00000-0  00000-0 0  9993
2 39533  53.8024 242.9429 0043792 195.1495 164.7059  2.00562411 44256
GPS BIIF-6  (PRN 06)    
1 39741U 14026A   20068.49597011 -.00000009  00000-0  00000-0 0  9999
2 39741  56.0827  60.7775 0021413 293.9203  65.8751  2.00553210 42551
GPS BIIF-7  (PRN 09)    
1 40105U 14045A   20067.58246355 -.00000004  00000-0  00000-0 0  9992
2 40105  54.5839 180.0175 0014683 104.3919 255.7542  2.00551197 40988
GPS BIIF-8  (PRN 03)    
1 40294U 14068A   20068.95375473  .00000033  00000-0  00000-0 0  9993
2 40294  55.2923 120.8769 0025087  36.5999 323.6574  2.00572057 39238
GPS BIIF-9  (PRN 26)    
1 40534U 15013A   20067.09790826  .00000016  00000-0  00000-0 0  9999
2 40534  54.3057 299.0817 0046529   8.7923 351.3534  2.00574416 36263
GPS BIIF-10 (PRN 08)    
1 40730U 15033A   20068.74932492 -.00000074  00000-0  00000-0 0  9994
2 40730  55.5768 359.9890 0052980 348.9763  10.9147  2.00568053 34052
GPS BIIF-11 (PRN 10)    
1 41019U 15062A   20067.80348864  .00000030  00000-0  00000+0 0  9997
2 41019  55.2901 120.7462 0055664 209.8831 149.8795  2.00564443 31856
GPS BIIF-12 (PRN 32)    
1 41328U 16007A   20068.39257902 -.00000000  00000-0  00000+0 0  9995
2 41328  54.8220 180.4449 0038112 219.1885 140.5200  2.00561333 29927
GPS BIII-1  (PRN 04)    
1 43873U 18109A   20069.42397943  .00000006  00000-0  00000-0 0  9998
2 43873  55.0025 182.6534 0007214 222.9049  54.2037  2.00558634  9165
